{
  "type": "FeatureCollection",
  "features": [
    {
      "type": "Feature",
      "properties": {
        "norad_id": 30719,
        "name": "FENGYUN 1C DEB",
        "group": "fengyun-1c-debris",
        "lat": 27.467822798581718,
        "lon": 133.33330119062106,
        "alt_km": 699.7132067476123,
        "timestamp": "2025-12-21T14:40:48.194865+00:00",
        "meta_object_name": "FENGYUN 1C DEB",
        "meta_object_id": "1999-025ASD",
        "meta_epoch": "2025-12-21T03:02:06.375552",
        "meta_mean_motion": 14.59483939,
        "meta_eccentricity": 0.00106523,
        "meta_inclination": 98.8874,
        "meta_ra_of_asc_node": 137.4798,
        "meta_arg_of_pericenter": 172.891,
        "meta_mean_anomaly": 187.2441,
        "meta_ephemeris_type": 0,
        "meta_classification_type": "U",
        "meta_norad_cat_id": 30719,
        "meta_element_set_no": 999,
        "meta_rev_at_epoch": 97571,
        "meta_bstar": 0.0021584794,
        "meta_mean_motion_dot": 0.0001021,
        "meta_mean_motion_ddot": 0,
        "tle_line1": "1 30719U 99025ASD 25355.12646268  .00010210  00000+0  21585-2 0  9996",
        "tle_line2": "2 30719  98.8874 137.4798 0010652 172.8910 187.2441 14.59483939975718"
      },
      "geometry": {
        "type": "Point",
        "coordinates": [
          133.33330119062106,
          27.467822798581718
        ]
      }
    },
    {
      "type": "Feature",
      "properties": {
        "norad_id": 30720,
        "name": "FENGYUN 1C DEB",
        "group": "fengyun-1c-debris",
        "lat": 22.161075102684922,
        "lon": -6.860204614407892,
        "alt_km": 813.4549383915391,
        "timestamp": "2025-12-21T14:40:48.194875+00:00",
        "meta_object_name": "FENGYUN 1C DEB",
        "meta_object_id": "1999-025ASE",
        "meta_epoch": "2025-12-20T11:19:26.302944",
        "meta_mean_motion": 14.29137577,
        "meta_eccentricity": 0.00324193,
        "meta_inclination": 99.0359,
        "meta_ra_of_asc_node": 168.2428,
        "meta_arg_of_pericenter": 306.4307,
        "meta_mean_anomaly": 110.1757,
        "meta_ephemeris_type": 0,
        "meta_classification_type": "U",
        "meta_norad_cat_id": 30720,
        "meta_element_set_no": 999,
        "meta_rev_at_epoch": 97599,
        "meta_bstar": 0.00029074255,
        "meta_mean_motion_dot": 6.94e-06,
        "meta_mean_motion_ddot": 0,
        "tle_line1": "1 30720U 99025ASE 25354.47183221  .00000694  00000+0  29074-3 0  9997",
        "tle_line2": "2 30720  99.0359 168.2428 0032419 306.4307 110.1757 14.29137577975999"
      },
      "geometry": {
        "type": "Point",
        "coordinates": [
          -6.860204614407892,
          22.161075102684922
        ]
      }
    },
    {
      "type": "Feature",
      "properties": {
        "norad_id": 30721,
        "name": "FENGYUN 1C DEB",
        "group": "fengyun-1c-debris",
        "lat": -37.382086435966755,
        "lon": 134.26486758218957,
        "alt_km": 640.8540391561664,
        "timestamp": "2025-12-21T14:40:48.194887+00:00",
        "meta_object_name": "FENGYUN 1C DEB",
        "meta_object_id": "1999-025ASF",
        "meta_epoch": "2025-12-20T14:57:58.461984",
        "meta_mean_motion": 14.7215631,
        "meta_eccentricity": 0.0028353,
        "meta_inclination": 98.7095,
        "meta_ra_of_asc_node": 126.481,
        "meta_arg_of_pericenter": 315.3038,
        "meta_mean_anomaly": 173.3328,
        "meta_ephemeris_type": 0,
        "meta_classification_type": "U",
        "meta_norad_cat_id": 30721,
        "meta_element_set_no": 999,
        "meta_rev_at_epoch": 97958,
        "meta_bstar": 0.0019317,
        "meta_mean_motion_dot": 0.00012206,
        "meta_mean_motion_ddot": 0,
        "tle_line1": "1 30721U 99025ASF 25354.62359331  .00012206  00000+0  19317-2 0  9992",
        "tle_line2": "2 30721  98.7095 126.4810 0028353 315.3038 173.3328 14.72156310979584"
      },
      "geometry": {
        "type": "Point",
        "coordinates": [
          134.26486758218957,
          -37.382086435966755
        ]
      }
    },
    {
      "type": "Feature",
      "properties": {
        "norad_id": 30723,
        "name": "FENGYUN 1C DEB",
        "group": "fengyun-1c-debris",
        "lat": -60.189915380515856,
        "lon": 97.70952663164384,
        "alt_km": 755.5389529655731,
        "timestamp": "2025-12-21T14:40:48.194899+00:00",
        "meta_object_name": "FENGYUN 1C DEB",
        "meta_object_id": "1999-025ASH",
        "meta_epoch": "2025-12-20T17:54:57.143808",
        "meta_mean_motion": 14.41436112,
        "meta_eccentricity": 0.00161366,
        "meta_inclination": 98.8434,
        "meta_ra_of_asc_node": 81.0472,
        "meta_arg_of_pericenter": 238.5889,
        "meta_mean_anomaly": 252.9146,
        "meta_ephemeris_type": 0,
        "meta_classification_type": "U",
        "meta_norad_cat_id": 30723,
        "meta_element_set_no": 999,
        "meta_rev_at_epoch": 97486,
        "meta_bstar": 0.0012870492,
        "meta_mean_motion_dot": 4.135e-05,
        "meta_mean_motion_ddot": 0,
        "tle_line1": "1 30723U 99025ASH 25354.74649472  .00004135  00000+0  12870-2 0  9994",
        "tle_line2": "2 30723  98.8434  81.0472 0016136 238.5889 252.9146 14.41436112974865"
      },
      "geometry": {
        "type": "Point",
        "coordinates": [
          97.70952663164384,
          -60.189915380515856
        ]
      }
    },
    {
      "type": "Feature",
      "properties": {
        "norad_id": 30724,
        "name": "FENGYUN 1C DEB",
        "group": "fengyun-1c-debris",
        "lat": 68.11377427155398,
        "lon": 156.90202625518882,
        "alt_km": 825.362503109367,
        "timestamp": "2025-12-21T14:40:48.194909+00:00",
        "meta_object_name": "FENGYUN 1C DEB",
        "meta_object_id": "1999-025ASJ",
        "meta_epoch": "2025-12-21T06:50:28.140288",
        "meta_mean_motion": 14.37068864,
        "meta_eccentricity": 0.00930762,
        "meta_inclination": 99.3156,
        "meta_ra_of_asc_node": 180.6656,
        "meta_arg_of_pericenter": 234.9,
        "meta_mean_anomaly": 306.7375,
        "meta_ephemeris_type": 0,
        "meta_classification_type": "U",
        "meta_norad_cat_id": 30724,
        "meta_element_set_no": 999,
        "meta_rev_at_epoch": 98575,
        "meta_bstar": 0.00034680668,
        "meta_mean_motion_dot": 1.029e-05,
        "meta_mean_motion_ddot": 0,
        "tle_line1": "1 30724U 99025ASJ 25355.28504792  .00001029  00000+0  34681-3 0  9994",
        "tle_line2": "2 30724  99.3156 180.6656 0093076 234.9000 306.7375 14.37068864985758"
      },
      "geometry": {
        "type": "Point",
        "coordinates": [
          156.90202625518882,
          68.11377427155398
        ]
      }
    },
    {
      "type": "Feature",
      "properties": {
        "norad_id": 30725,
        "name": "FENGYUN 1C DEB",
        "group": "fengyun-1c-debris",
        "lat": -77.93624440075492,
        "lon": 112.44773029612061,
        "alt_km": 842.0528989929853,
        "timestamp": "2025-12-21T14:40:48.194921+00:00",
        "meta_object_name": "FENGYUN 1C DEB",
        "meta_object_id": "1999-025ASK",
        "meta_epoch": "2025-12-18T04:13:47.040960",
        "meta_mean_motion": 14.16096218,
        "meta_eccentricity": 0.00869506,
        "meta_inclination": 99.0078,
        "meta_ra_of_asc_node": 61.0543,
        "meta_arg_of_pericenter": 14.8425,
        "meta_mean_anomaly": 40.2494,
        "meta_ephemeris_type": 0,
        "meta_classification_type": "U",
        "meta_norad_cat_id": 30725,
        "meta_element_set_no": 999,
        "meta_rev_at_epoch": 96425,
        "meta_bstar": 0.00092452617,
        "meta_mean_motion_dot": 1.85e-05,
        "meta_mean_motion_ddot": 0,
        "tle_line1": "1 30725U 99025ASK 25352.17623890  .00001850  00000+0  92453-3 0  9994",
        "tle_line2": "2 30725  99.0078  61.0543 0086950  14.8425  40.2494 14.16096218964250"
      },
      "geometry": {
        "type": "Point",
        "coordinates": [
          112.44773029612061,
          -77.93624440075492
        ]
      }
    },
    {
      "type": "Feature",
      "properties": {
        "norad_id": 30726,
        "name": "FENGYUN 1C DEB",
        "group": "fengyun-1c-debris",
        "lat": 79.43682221153934,
        "lon": -121.279679910802,
        "alt_km": 869.8087791501221,
        "timestamp": "2025-12-21T14:40:48.194931+00:00",
        "meta_object_name": "FENGYUN 1C DEB",
        "meta_object_id": "1999-025ASL",
        "meta_epoch": "2025-12-20T06:28:09.621120",
        "meta_mean_motion": 14.09327547,
        "meta_eccentricity": 0.00783558,
        "meta_inclination": 99.267,
        "meta_ra_of_asc_node": 356.2329,
        "meta_arg_of_pericenter": 205.1494,
        "meta_mean_anomaly": 285.1939,
        "meta_ephemeris_type": 0,
        "meta_classification_type": "U",
        "meta_norad_cat_id": 30726,
        "meta_element_set_no": 999,
        "meta_rev_at_epoch": 96089,
        "meta_bstar": 0.00081235344,
        "meta_mean_motion_dot": 1.409e-05,
        "meta_mean_motion_ddot": 0,
        "tle_line1": "1 30726U 99025ASL 25354.26955580  .00001409  00000+0  81235-3 0  9997",
        "tle_line2": "2 30726  99.2670 356.2329 0078355 205.1494 285.1939 14.09327547960897"
      },
      "geometry": {
        "type": "Point",
        "coordinates": [
          -121.279679910802,
          79.43682221153934
        ]
      }
    }
  ]
}